format  = 'OEF2.0'       ! file format
rectype = 'ML'           ! record type (1L/ML)
refsys  = ECLM J2000     ! default reference system
END_OF_HEADER
1862red
! Keplerian elements: a, e, i, long. node, arg. peric., mean anomaly
 KEP     1.470366    0.560251       6.354      35.702     285.876      84.736
 MJD   57039.7964 TDT
 MAG  16.374  0.150
! Non-grav parameters: model used, actual number in use, dimension
 LSP   0  0    6
! PERIHELION    0.6466
! APHELION    2.2941
! ANODE   -0.11902
! DNODE    0.18422
! MOID    0.02589
! PERIOD         651.2332
! PHA T
! VINFTY   16.9383
! RMS    5.374E-04   4.177E-04   2.113E-03   1.647E-02   1.138E-02   7.313E-02
 COV          2.88766489E-07         2.24141239E-07         1.12817839E-06
 COV          6.43571467E-06        -4.62428403E-06        -3.89915370E-05
 COV          1.74500431E-07         8.79091777E-07         5.18665811E-06
 COV         -3.71836931E-06        -3.04352655E-05         4.46591582E-06
 COV          2.74146504E-05        -1.97377448E-05        -1.53736822E-04
 COV          2.71304618E-04        -1.85034123E-04        -9.66856863E-04
 COV          1.29413090E-04         6.83654380E-04         5.34864578E-03
 COR              1.00000000             0.99850471             0.99345709
 COR              0.72710108            -0.75645309            -0.99214475
 COR              1.00000000             0.99581967             0.75380806
 COR             -0.78246545            -0.99622383             1.00000000
 COR              0.78758757            -0.82101891            -0.99471969
 COR              1.00000000            -0.98749324            -0.80262313
 COR              1.00000000             0.82172326             1.00000000
